CSS (TIANHE)            
1 48274U 21035A   24100.81744799  .00017308  00000+0  17358-3 0  9997
2 48274  41.4672 140.8588 0008508 357.1074   2.9716 15.65067909168393
